{"signature":{"version":"1.3","source":"NASA/JPL Small-Body Database (SBDB) API"},"orbit":{"first_obs":"1804-08-27","n_del_obs_used":null,"condition_code":"0","elements":[{"title":"eccentricity","name":"e","units":null,"value":".2307000995648547","sigma":"5.7536E-9","label":"e"},{"sigma":"1.7736E-9","label":"a","name":"a","title":"semi-major axis","units":"au","value":"2.769559010737709"},{"label":"q","sigma":"1.5815E-8","units":"au","value":"2.130621471209779","name":"q","title":"perihelion distance"},{"name":"i","title":"inclination; angle with respect to x-y ecliptic plane","value":"34.93279321851542","units":"deg","sigma":"6.9364E-7","label":"i"},{"units":"deg","value":"172.8866193357694","name":"om","title":"longitude of the ascending node","label":"node","sigma":"1.2984E-6"},{"sigma":"2.4001E-6","label":"peri","name":"w","title":"argument of perihelion","value":"310.9699161652136","units":"deg"},{"units":"deg","value":"254.2496521742734","name":"ma","title":"mean anomaly","label":"M","sigma":"2.4573E-6"},{"label":"tp","sigma":"1.1582E-5","units":"TDB","value":"2461695.031164382680","title":"time of perihelion passage","name":"tp"},{"label":"period","sigma":"1.6172E-6","value":"1683.504809564834","units":"d","name":"per","title":"sidereal orbital period"},{"label":"n","sigma":"2.0541E-10","units":"deg/d","value":".2138396029251949","title":"mean motion","name":"n"},{"label":"Q","sigma":"2.1828E-9","value":"3.408496550265638","units":"au","name":"ad","title":"aphelion distance"}],"not_valid_before":null,"data_arc":"80828","comment":null,"cov_epoch":"2457870.5","source":"JPL","n_obs_used":9772,"last_obs":"2025-12-14","orbit_id":"74","epoch":"2461200.5","two_body":null,"soln_date":"2026-06-05 03:03:25","producer":"Otto Matic","model_pars":[],"n_dop_obs_used":null,"not_valid_after":null,"moid":"1.22683","rms":".35838","moid_jup":"1.85403","t_jup":"3.043","sb_used":"SB441-N16","equinox":"J2000","pe_used":"DE441"},"object":{"kind":"an","pha":false,"neo":false,"spkid":"20000002","des":"2","shortname":"2 Pallas","prefix":null,"orbit_id":"74","orbit_class":{"code":"MBA","name":"Main-belt Asteroid"},"fullname":"2 Pallas (A802 FA)"}}
